{"type": "FeatureCollection", "features": [ {"type": "Feature", "properties": {"norad_id": 54234, "name": "NOAA 21 (JPSS-2)", "group": "weather", "lat": 46.90707300224578, "lon": -90.86415652286775, "alt_km": 821.0641683027161, "timestamp": "2025-12-08T05:48:08.691758+00:00", "meta": {"OBJECT_NAME": "NOAA 21 (JPSS-2)", "OBJECT_ID": "2022-150A", "EPOCH": "2025-12-07T22:48:44.070048", "MEAN_MOTION": 14.19522055, "ECCENTRICITY": 0.00023988, "INCLINATION": 98.7456, "RA_OF_ASC_NODE": 278.3187, "ARG_OF_PERICENTER": 47.1667, "MEAN_ANOMALY": 312.971, "EPHEMERIS_TYPE": 0, "CLASSIFICATION_TYPE": "U", "NORAD_CAT_ID": 54234, "ELEMENT_SET_NO": 999, "REV_AT_EPOCH": 15941, "BSTAR": 0.00010411981, "MEAN_MOTION_DOT": 1.76e-06, "MEAN_MOTION_DDOT": 0}, "tle": {"line1": "1 54234U 22150A   25341.95051007  .00000176  00000+0  10412-3 0  9994", "line2": "2 54234  98.7456 278.3187 0002398  47.1667 312.9710 14.19522055159415"}}, "geometry": {"type": "Point", "coordinates": [-90.86415652286775, 46.90707300224578]}}, {"type": "Feature", "properties": {"norad_id": 54743, "name": "METEOSAT-12 (MTG-I1)", "group": "weather", "lat": 0.5277973799177732, "lon": 164.03302350087333, "alt_km": 35785.15097517944, "timestamp": "2025-12-08T05:48:08.691770+00:00", "meta": {"OBJECT_NAME": "METEOSAT-12 (MTG-I1)", "OBJECT_ID": "2022-170C", "EPOCH": "2025-12-07T22:11:37.989600", "MEAN_MOTION": 1.00274741, "ECCENTRICITY": 0.00015063, "INCLINATION": 0.7247, "RA_OF_ASC_NODE": 30.8457, "ARG_OF_PERICENTER": 222.9415, "MEAN_ANOMALY": 155.8217, "EPHEMERIS_TYPE": 0, "CLASSIFICATION_TYPE": "U", "NORAD_CAT_ID": 54743, "ELEMENT_SET_NO": 999, "REV_AT_EPOCH": 1106, "BSTAR": 0, "MEAN_MOTION_DOT": -3e-08, "MEAN_MOTION_DDOT": 0}, "tle": {"line1": "1 54743U 22170C   25341.92474525 -.00000003  00000+0  00000+0 0  9990", "line2": "2 54743   0.7247  30.8457 0001506 222.9415 155.8217  1.00274741 11062"}}, "geometry": {"type": "Point", "coordinates": [164.03302350087333, 0.5277973799177732]}}, {"type": "Feature", "properties": {"norad_id": 55973, "name": "TIANMU-1 03", "group": "weather", "lat": 7.212803527767428, "lon": -34.2747402702483, "alt_km": 446.54903592938626, "timestamp": "2025-12-08T05:48:08.691781+00:00", "meta": {"OBJECT_NAME": "TIANMU-1 03", "OBJECT_ID": "2023-039A", "EPOCH": "2025-12-07T21:15:44.712288", "MEAN_MOTION": 15.407106, "ECCENTRICITY": 0.00045105, "INCLINATION": 97.5111, "RA_OF_ASC_NODE": 144.4029, "ARG_OF_PERICENTER": 75.4292, "MEAN_ANOMALY": 284.7454, "EPHEMERIS_TYPE": 0, "CLASSIFICATION_TYPE": "U", "NORAD_CAT_ID": 55973, "ELEMENT_SET_NO": 999, "REV_AT_EPOCH": 15131, "BSTAR": 0.00045244746, "MEAN_MOTION_DOT": 0.00018419, "MEAN_MOTION_DDOT": 0}, "tle": {"line1": "1 55973U 23039A   25341.88593417  .00018419  00000+0  45245-3 0  9991", "line2": "2 55973  97.5111 144.4029 0004510  75.4292 284.7454 15.40710600151317"}}, "geometry": {"type": "Point", "coordinates": [-34.2747402702483, 7.212803527767428]}}, {"type": "Feature", "properties": {"norad_id": 55974, "name": "TIANMU-1 04", "group": "weather", "lat": -76.67405811056045, "lon": 177.77754508578033, "alt_km": 453.3407681220824, "timestamp": "2025-12-08T05:48:08.691791+00:00", "meta": {"OBJECT_NAME": "TIANMU-1 04", "OBJECT_ID": "2023-039B", "EPOCH": "2025-12-07T22:21:10.101888", "MEAN_MOTION": 15.41045963, "ECCENTRICITY": 0.00051723, "INCLINATION": 97.5044, "RA_OF_ASC_NODE": 143.6426, "ARG_OF_PERICENTER": 70.6655, "MEAN_ANOMALY": 289.515, "EPHEMERIS_TYPE": 0, "CLASSIFICATION_TYPE": "U", "NORAD_CAT_ID": 55974, "ELEMENT_SET_NO": 999, "REV_AT_EPOCH": 15132, "BSTAR": 0.00046632175, "MEAN_MOTION_DOT": 0.00019202, "MEAN_MOTION_DDOT": 0}, "tle": {"line1": "1 55974U 23039B   25341.93136692  .00019202  00000+0  46632-3 0  9998", "line2": "2 55974  97.5044 143.6426 0005172  70.6655 289.5150 15.41045963151321"}}, "geometry": {"type": "Point", "coordinates": [177.77754508578033, -76.67405811056045]}}, {"type": "Feature", "properties": {"norad_id": 55975, "name": "TIANMU-1 05", "group": "weather", "lat": -40.61554156725479, "lon": 150.94866797405132, "alt_km": 452.70639865204794, "timestamp": "2025-12-08T05:48:08.691809+00:00", "meta": {"OBJECT_NAME": "TIANMU-1 05", "OBJECT_ID": "2023-039C", "EPOCH": "2025-12-07T22:11:11.179680", "MEAN_MOTION": 15.40670238, "ECCENTRICITY": 0.0004368, "INCLINATION": 97.5089, "RA_OF_ASC_NODE": 144.1277, "ARG_OF_PERICENTER": 92.0824, "MEAN_ANOMALY": 268.0923, "EPHEMERIS_TYPE": 0, "CLASSIFICATION_TYPE": "U", "NORAD_CAT_ID": 55975, "ELEMENT_SET_NO": 999, "REV_AT_EPOCH": 15130, "BSTAR": 0.00045539747, "MEAN_MOTION_DOT": 0.00018515, "MEAN_MOTION_DDOT": 0}, "tle": {"line1": "1 55975U 23039C   25341.92443495  .00018515  00000+0  45540-3 0  9993", "line2": "2 55975  97.5089 144.1277 0004368  92.0824 268.0923 15.40670238151309"}}, "geometry": {"type": "Point", "coordinates": [150.94866797405132, -40.61554156725479]}}, {"type": "Feature", "properties": {"norad_id": 55976, "name": "TIANMU-1 06", "group": "weather", "lat": -82.2722946899792, "lon": -111.54375525085416, "alt_km": 453.38626806993943, "timestamp": "2025-12-08T05:48:08.691820+00:00", "meta": {"OBJECT_NAME": "TIANMU-1 06", "OBJECT_ID": "2023-039D", "EPOCH": "2025-12-07T22:24:32.075712", "MEAN_MOTION": 15.41098617, "ECCENTRICITY": 0.00046759, "INCLINATION": 97.5101, "RA_OF_ASC_NODE": 144.5983, "ARG_OF_PERICENTER": 87.2673, "MEAN_ANOMALY": 272.9109, "EPHEMERIS_TYPE": 0, "CLASSIFICATION_TYPE": "U", "NORAD_CAT_ID": 55976, "ELEMENT_SET_NO": 999, "REV_AT_EPOCH": 15132, "BSTAR": 0.00046789398, "MEAN_MOTION_DOT": 0.00019299, "MEAN_MOTION_DDOT": 0}, "tle": {"line1": "1 55976U 23039D   25341.93370458  .00019299  00000+0  46789-3 0  9999", "line2": "2 55976  97.5101 144.5983 0004675  87.2673 272.9109 15.41098617151320"}}, "geometry": {"type": "Point", "coordinates": [-111.54375525085416, -82.2722946899792]}}, {"type": "Feature", "properties": {"norad_id": 56232, "name": "FENGYUN 3G", "group": "weather", "lat": 44.47207587950332, "lon": 15.11685190158839, "alt_km": 394.88386252810324, "timestamp": "2025-12-08T05:48:08.691830+00:00", "meta": {"OBJECT_NAME": "FENGYUN 3G", "OBJECT_ID": "2023-055A", "EPOCH": "2025-12-07T23:08:21.089472", "MEAN_MOTION": 15.53223831, "ECCENTRICITY": 0.00092574, "INCLINATION": 49.9939, "RA_OF_ASC_NODE": 252.092, "ARG_OF_PERICENTER": 126.0947, "MEAN_ANOMALY": 234.0879, "EPHEMERIS_TYPE": 0, "CLASSIFICATION_TYPE": "U", "NORAD_CAT_ID": 56232, "ELEMENT_SET_NO": 999, "REV_AT_EPOCH": 15028, "BSTAR": 0.00063358292, "MEAN_MOTION_DOT": 0.00040444, "MEAN_MOTION_DDOT": 0}, "tle": {"line1": "1 56232U 23055A   25341.96413298  .00040444  00000+0  63358-3 0  9993", "line2": "2 56232  49.9939 252.0920 0009257 126.0947 234.0879 15.53223831150287"}}, "geometry": {"type": "Point", "coordinates": [15.11685190158839, 44.47207587950332]}}, {"type": "Feature", "properties": {"norad_id": 57166, "name": "METEOR-M2 3", "group": "weather", "lat": -60.36283215209803, "lon": -159.63821823077663, "alt_km": 821.1793913744477, "timestamp": "2025-12-08T05:48:08.691840+00:00", "meta": {"OBJECT_NAME": "METEOR-M2 3", "OBJECT_ID": "2023-091A", "EPOCH": "2025-12-07T21:55:35.340672", "MEAN_MOTION": 14.24025199, "ECCENTRICITY": 0.00041791, "INCLINATION": 98.6385, "RA_OF_ASC_NODE": 35.5371, "ARG_OF_PERICENTER": 22.0951, "MEAN_ANOMALY": 338.0408, "EPHEMERIS_TYPE": 0, "CLASSIFICATION_TYPE": "U", "NORAD_CAT_ID": 57166, "ELEMENT_SET_NO": 999, "REV_AT_EPOCH": 12729, "BSTAR": 3.9158813e-05, "MEAN_MOTION_DOT": 4.6e-07, "MEAN_MOTION_DDOT": 0}, "tle": {"line1": "1 57166U 23091A   25341.91360348  .00000046  00000+0  39159-4 0  9999", "line2": "2 57166  98.6385  35.5371 0004179  22.0951 338.0408 14.24025199127294"}}, "geometry": {"type": "Point", "coordinates": [-159.63821823077663, -60.36283215209803]}}, {"type": "Feature", "properties": {"norad_id": 57399, "name": "TIANMU-1 07", "group": "weather", "lat": -7.609857333879437, "lon": -148.7886810391263, "alt_km": 486.2533500492809, "timestamp": "2025-12-08T05:48:08.691851+00:00", "meta": {"OBJECT_NAME": "TIANMU-1 07", "OBJECT_ID": "2023-101A", "EPOCH": "2025-12-07T21:07:33.857472", "MEAN_MOTION": 15.27965789, "ECCENTRICITY": 0.00056419, "INCLINATION": 97.2878, "RA_OF_ASC_NODE": 31.8375, "ARG_OF_PERICENTER": 93.7421, "MEAN_ANOMALY": 266.4464, "EPHEMERIS_TYPE": 0, "CLASSIFICATION_TYPE": "U", "NORAD_CAT_ID": 57399, "ELEMENT_SET_NO": 999, "REV_AT_EPOCH": 13241, "BSTAR": 0.00035593141, "MEAN_MOTION_DOT": 9.647e-05, "MEAN_MOTION_DDOT": 0}, "tle": {"line1": "1 57399U 23101A   25341.88025298  .00009647  00000+0  35593-3 0  9990", "line2": "2 57399  97.2878  31.8375 0005641  93.7421 266.4464 15.27965789132417"}}, "geometry": {"type": "Point", "coordinates": [-148.7886810391263, -7.609857333879437]}}, {"type": "Feature", "properties": {"norad_id": 57400, "name": "TIANMU-1 08", "group": "weather", "lat": 9.197501176257521, "lon": 30.80273663654328, "alt_km": 483.45178060837407, "timestamp": "2025-12-08T05:48:08.691861+00:00", "meta": {"OBJECT_NAME": "TIANMU-1 08", "OBJECT_ID": "2023-101B", "EPOCH": "2025-12-07T21:54:11.626848", "MEAN_MOTION": 15.27950423, "ECCENTRICITY": 0.00075475, "INCLINATION": 97.2865, "RA_OF_ASC_NODE": 31.6681, "ARG_OF_PERICENTER": 97.3224, "MEAN_ANOMALY": 262.8873, "EPHEMERIS_TYPE": 0, "CLASSIFICATION_TYPE": "U", "NORAD_CAT_ID": 57400, "ELEMENT_SET_NO": 999, "REV_AT_EPOCH": 13241, "BSTAR": 0.00035296261, "MEAN_MOTION_DOT": 9.565e-05, "MEAN_MOTION_DDOT": 0}, "tle": {"line1": "1 57400U 23101B   25341.91263457  .00009565  00000+0  35296-3 0  9997", "line2": "2 57400  97.2865  31.6681 0007547  97.3224 262.8873 15.27950423132415"}}, "geometry": {"type": "Point", "coordinates": [30.80273663654328, 9.197501176257521]}}]}